#aV2018 12 19  0  0  0.00000000     288 DD+AD WGS84 FIT  NGA
## 2032 259200.00000000   300.00000000 58471 0.0000000000000
+   31     1  2  3  5  6  7  8  9 10 11 12 13 14 15 16 17 18
+         19 20 21 22 23 24 25 26 27 28 29 30 31 32  0  0  0
+          0  0  0  0  0  0  0  0  0  0  0  0  0  0  0  0  0
+          0  0  0  0  0  0  0  0  0  0  0  0  0  0  0  0  0
+          0  0  0  0  0  0  0  0  0  0  0  0  0  0  0  0  0
++         2  2  2  2  2  2  2  2  2  2  2  2  2  2  2  2  2
++         2  2  2  2  2  2  2  2  2  2  2  2  2  2  0  0  0
++         0  0  0  0  0  0  0  0  0  0  0  0  0  0  0  0  0
++         0  0  0  0  0  0  0  0  0  0  0  0  0  0  0  0  0
++         0  0  0  0  0  0  0  0  0  0  0  0  0  0  0  0  0
%c cc cc ccc ccc cccc cccc cccc cccc ccccc ccccc ccccc ccccc
%c cc cc ccc ccc cccc cccc cccc cccc ccccc ccccc ccccc ccccc
%f  0.0000000  0.000000000  0.00000000000  0.000000000000000
%f  0.0000000  0.000000000  0.00000000000  0.000000000000000
%i    0    0    0    0      0      0      0      0         0
%i    0    0    0    0      0      0      0      0         0
/*      NGA, ST. LOUIS,MO.                                  
/*   EPHEMERIS COMPUTED FROM 2 DAYS OF DATA                 
/*   EPOCHA v3 SMOOTHER                                     
/*   G1762 IERS2010 SATAF SATAPC                            
*  2018 12 19 20  5  0.00000000
P  1 -20724.755917 -11097.510437  12483.940825   -131.510307                    
V  1  -9053.338022 -13297.592567 -26195.156656     -0.059540                    
P  2  13141.276242  21867.632018   8342.497695    -90.208163                    
V  2  -8647.297616  -5175.969011  29069.584866     -0.103103                    
P  3 -15401.125097  -1433.339834  21545.066056    170.904454                    
V  3   8554.404964 -26092.923782   4438.375971      0.031013                    
P  5   5432.785157  20564.308120 -15899.788152      0.461032                    
V  5  -8237.525180  18458.661818  21418.343373      0.001767                    
P  6   1365.793172  19809.421649  17668.076465    313.292299                    
V  6 -15780.157665 -15871.076962  19073.727944     -0.070490                    
P  7 -16308.183242   3136.288645 -20581.746581     67.509460                    
V  7 -16581.776381 -20806.083462   9401.229445     -0.070181                    
P  8 -19519.519538  -7456.767722 -16448.755637   -126.148843                    
V  8  20131.034038  -5801.110209 -21021.627839     -0.013509                    
P  9 -25162.846901   7788.454259  -3499.770899    481.427911                    
V  9  -4918.601600  -2083.078404  31141.132130     -0.040399                    
P 10  11096.025260 -23659.088059  -4103.170550    149.140065                    
V 10   1039.361221   5946.897426 -31327.994543     -0.055852                    
P 11 -24646.690328  -9184.216917   2143.524585   -686.573968                    
V 11  -1187.858590  -5657.166423 -30521.341654      0.047277                    
P 12  13440.085273   5716.289919  21989.336002    283.198473                    
V 12 -10884.476813  26151.580610     29.172497     -0.030084                    
P 13  12126.788060  12896.237282 -19928.202272    -81.071983                    
V 13 -24880.050962   2809.715497 -13371.027087      0.011947                    
P 14   4595.752962 -15535.747607  21318.045041    -94.413533                    
V 14  26317.350235  -2291.245821  -7624.453419      0.005108                    
P 15  22291.660347   4659.312956 -14233.427154   -335.628261                    
V 15 -16189.389994   7329.087676 -22975.152409      0.014566                    
P 16  -2675.118192 -20719.610943 -16301.757556     -7.610522                    
V 16   9757.448508 -18118.742794  22058.340614     -0.022272                    
P 17 -14738.768762  13868.218265  17550.756454    -16.388588                    
V 17 -21441.054273   1763.908781 -19971.011167      0.051108                    
P 18 -19608.476826 -17743.260353   2730.906855      7.180639                    
V 18   -631.680606  -4974.108281 -31226.374877      0.039368                    
P 19  -5209.815206  14730.892819  21205.046256   -372.195889                    
V 19 -27461.619281   2032.846666  -7941.922595      0.038822                    
P 20  14193.698227 -18014.842608 -13405.204212    520.141438                    
V 20   -683.178212  17212.134104 -24196.467339      0.004558                    
P 21  13704.228429  -7311.904258 -20737.219988   -284.426031                    
V 21  19214.397512  20759.984506   5261.337994      0.067282                    
P 22 -13570.683649  -9830.821855  20844.504768   -602.647652                    
V 22   7616.615578 -24953.043487  -6844.214012     -0.091792                    
P 23 -26024.823376    640.006488   6578.792506   -203.062708                    
V 23   7127.772969  -4406.073476  29616.795871      0.010900                    
P 24  21309.714953  14023.637391   7827.133052    -59.728575                    
V 24   4789.955092   9349.219917 -28947.726114     -0.005678                    
P 25  16427.456800  -6859.284635  19440.004735   -693.617995                    
V 25  -7040.494526  24170.960963  14581.580187     -0.054949                    
P 26   2750.311670 -25342.146894  -7164.888091     72.396105                    
V 26   5649.238591  -7789.819984  29907.227875      0.107838                    
P 27  -9777.863552 -12699.463413 -21313.562814    -34.935056                    
V 27  26163.904879  -5637.057013  -8409.385059     -0.059826                    
P 28 -13411.857270  22343.195244  -4713.323674    759.099804                    
V 28    869.862088  -7007.779874 -31463.781006      0.014021                    
P 29  26240.506065  -4008.859563   -911.887836    311.914041                    
V 29   1384.712251   1885.615136  32254.104265     -0.081296                    
P 30  -8164.294319  14145.540699 -20900.648912    -22.368510                    
V 30 -17220.024533 -20391.067703  -7237.732590     -0.059321                    
P 31  -3112.804020 -21031.493883  15655.158830     71.694840                    
V 31  14399.070546  14090.647577  22244.076842     -0.026237                    
P 32  12189.070174 -15354.144351  17912.159197   -311.772513                    
V 32  22608.633562  -2817.899257 -17936.137409      0.158509                    
EOF
